ORBCOMM FM33 [-]        
1 25983U 99065D   23363.17765201  .00001696  00000+0  61229-3 0  9996
2 25983  45.0303  21.1947 0010567 252.9058 214.5057 14.37134628258882
ORBCOMM FM36 [-]        
1 25984U 99065E   23363.41633735  .00001714  00000+0  64554-3 0  9995
2 25984  45.0395 103.2720 0003744 156.1063 203.9959 14.35002614257389
ORBCOMM FM35 [+]        
1 25985U 99065F   23363.42381370  .00001636  00000+0  62258-3 0  9994
2 25985  45.0400 105.5075 0004481 233.1888 126.8549 14.34664291257781
ORBCOMM FM34 [-]        
1 25986U 99065G   23363.18154183  .00001654  00000+0  62928-3 0  9992
2 25986  45.0392 107.1473 0004811 189.6162 170.4594 14.34618197257867
ORBCOMM FM38 [-]        
1 33060U 08031A   23363.30045515  .00002850  00000+0  43242-3 0  9996
2 33060  48.4428 339.3335 0005841 268.1157  91.9088 14.76659424835437
ORBCOMM FM41 [-]        
1 33061U 08031B   23363.94847876  .00002228  00000+0  34648-3 0  9996
2 33061  48.4462 342.5853 0004949 257.2814 193.3669 14.76408837835470
ORBCOMM FM29 [-]        
1 33062U 08031C   23364.20049520  .00002451  00000+0  37905-3 0  9994
2 33062  48.4414 349.4043 0006842 255.7779 197.3709 14.76305458835375
ORBCOMM FM39 [-]        
1 33063U 08031D   23363.25150058  .00002318  00000+0  36741-3 0  9997
2 33063  48.4421  13.4602 0007625 229.2196 130.8056 14.75409360834554
